start=new Date('2022-01-16T00:00:00.000Z').valueOf();
sats=[{"COUNTRY_CODE":"US","EPHEMERIS_TYPE":"0","RCS_SIZE":"LARGE","OBJECT_NAME":"STARLINK-2589","MEAN_ANOMALY":"296.5679","GP_ID":"193921697","ELEMENT_SET_NO":"999","SITE":"AFETR","OBJECT_ID":"2021-038U","CLASSIFICATION_TYPE":"U","MEAN_MOTION":"15.06408343","PERIAPSIS":"545.792","TLE_LINE2":"2 48371  53.0582 308.9719 0002016  63.5516 296.5679 15.06408343 39538","INCLINATION":"53.0582","TIME_SYSTEM":"UTC","MEAN_MOTION_DDOT":"0.0000000000000","FILE":"3273907","PERIOD":"95.592","SEMIMAJOR_AXIS":"6925.323","NORAD_CAT_ID":"48371","EPOCH":"2022-01-15T12:37:38.968608","OBJECT_TYPE":"PAYLOAD","ECCENTRICITY":"0.00020160","TLE_LINE1":"1 48371U 21038U   22015.52614547  .00002291  00000-0  17263-3 0  9997","BSTAR":"0.00017263000000","LAUNCH_DATE":"2021-05-04","APOAPSIS":"548.584","MEAN_MOTION_DOT":"0.00002291","RA_OF_ASC_NODE":"308.9719","REV_AT_EPOCH":"3953","CENTER_NAME":"EARTH","DECAY_DATE":null,"REF_FRAME":"TEME","MEAN_ELEMENT_THEORY":"SGP4","ARG_OF_PERICENTER":"63.5516"},{"EPHEMERIS_TYPE":"0","COUNTRY_CODE":"US","RCS_SIZE":"LARGE","OBJECT_NAME":"STARLINK-2572","MEAN_ANOMALY":"295.4846","GP_ID":"193922980","ELEMENT_SET_NO":"999","OBJECT_ID":"2021-038V","SITE":"AFETR","MEAN_MOTION":"15.06400832","CLASSIFICATION_TYPE":"U","PERIAPSIS":"545.898","INCLINATION":"53.0583","TLE_LINE2":"2 48372  53.0583 308.9857 0001896  64.6339 295.4846 15.06400832 39532","TIME_SYSTEM":"UTC","PERIOD":"95.592","FILE":"3273955","MEAN_MOTION_DDOT":"0.0000000000000","EPOCH":"2022-01-15T12:32:20.411808","NORAD_CAT_ID":"48372","SEMIMAJOR_AXIS":"6925.346","ECCENTRICITY":"0.00018960","OBJECT_TYPE":"PAYLOAD","BSTAR":"0.00013407000000","TLE_LINE1":"1 48372U 21038V   22015.52245847  .00001716  00000-0  13407-3 0  9998","RA_OF_ASC_NODE":"308.9857","LAUNCH_DATE":"2021-05-04","MEAN_MOTION_DOT":"0.00001716","APOAPSIS":"548.524","REV_AT_EPOCH":"3953","REF_FRAME":"TEME","DECAY_DATE":null,"CENTER_NAME":"EARTH","ARG_OF_PERICENTER":"64.6339","MEAN_ELEMENT_THEORY":"SGP4"},{"REV_AT_EPOCH":"3894","LAUNCH_DATE":"2021-05-04","MEAN_MOTION_DOT":"0.00003021","APOAPSIS":"548.501","RA_OF_ASC_NODE":"309.0099","TLE_LINE1":"1 48373U 21038W   22015.51877574  .00003021  00000-0  22159-3 0  9991","BSTAR":"0.00022159000000","MEAN_ELEMENT_THEORY":"SGP4","ARG_OF_PERICENTER":"68.2962","CENTER_NAME":"EARTH","DECAY_DATE":null,"REF_FRAME":"TEME","MEAN_MOTION_DDOT":"0.0000000000000","FILE":"3273762","PERIOD":"95.592","TIME_SYSTEM":"UTC","OBJECT_TYPE":"PAYLOAD","ECCENTRICITY":"0.00018680","SEMIMAJOR_AXIS":"6925.342","NORAD_CAT_ID":"48373","EPOCH":"2022-01-15T12:27:02.223936","CLASSIFICATION_TYPE":"U","MEAN_MOTION":"15.06402058","OBJECT_ID":"2021-038W","SITE":"AFETR","ELEMENT_SET_NO":"999","TLE_LINE2":"2 48373  53.0556 309.0099 0001868  68.2962 291.8226 15.06402058 38942","INCLINATION":"53.0556","PERIAPSIS":"545.914","OBJECT_NAME":"STARLINK-2609","RCS_SIZE":"LARGE","COUNTRY_CODE":"US","EPHEMERIS_TYPE":"0","GP_ID":"193916561","MEAN_ANOMALY":"291.8226"},{"TIME_SYSTEM":"UTC","PERIOD":"95.593","FILE":"3273880","MEAN_MOTION_DDOT":"0.0000000000000","EPOCH":"2022-01-15T12:21:44.091360","SEMIMAJOR_AXIS":"6925.367","NORAD_CAT_ID":"48374","ECCENTRICITY":"0.00020730","OBJECT_TYPE":"PAYLOAD","BSTAR":"0.00011488000000","TLE_LINE1":"1 48374U 21038X   22015.51509365  .00001430  00000-0  11488-3 0  9997","RA_OF_ASC_NODE":"309.0125","MEAN_MOTION_DOT":"0.00001430","LAUNCH_DATE":"2021-05-04","APOAPSIS":"548.667","REV_AT_EPOCH":"3953","REF_FRAME":"TEME","DECAY_DATE":null,"CENTER_NAME":"EARTH","ARG_OF_PERICENTER":"62.6471","MEAN_ELEMENT_THEORY":"SGP4","EPHEMERIS_TYPE":"0","COUNTRY_CODE":"US","RCS_SIZE":"LARGE","OBJECT_NAME":"STARLINK-2604","MEAN_ANOMALY":"297.4729","GP_ID":"193921347","ELEMENT_SET_NO":"999","SITE":"AFETR","OBJECT_ID":"2021-038X","MEAN_MOTION":"15.06394077","CLASSIFICATION_TYPE":"U","PERIAPSIS":"545.796","INCLINATION":"53.0570","TLE_LINE2":"2 48374  53.0570 309.0125 0002073  62.6471 297.4729 15.06394077 39538"},{"MEAN_MOTION":"15.06403049","CLASSIFICATION_TYPE":"U","SITE":"AFETR","OBJECT_ID":"2021-038Y","ELEMENT_SET_NO":"999","INCLINATION":"53.0561","TLE_LINE2":"2 48375  53.0561 309.0380 0001835  71.9131 288.2058 15.06403049 39536","PERIAPSIS":"545.933","OBJECT_NAME":"STARLINK-2603","RCS_SIZE":"LARGE","EPHEMERIS_TYPE":"0","COUNTRY_CODE":"US","GP_ID":"193921055","MEAN_ANOMALY":"288.2058","REV_AT_EPOCH":"3953","RA_OF_ASC_NODE":"309.0380","LAUNCH_DATE":"2021-05-04","MEAN_MOTION_DOT":"0.00001681","APOAPSIS":"548.475","BSTAR":"0.00013174000000","TLE_LINE1":"1 48375U 21038Y   22015.51139911  .00001681  00000-0  13174-3 0  9996","ARG_OF_PERICENTER":"71.9131","MEAN_ELEMENT_THEORY":"SGP4","DECAY_DATE":null,"REF_FRAME":"TEME","CENTER_NAME":"EARTH","PERIOD":"95.592","FILE":"3273880","MEAN_MOTION_DDOT":"0.0000000000000","TIME_SYSTEM":"UTC","ECCENTRICITY":"0.00018350","OBJECT_TYPE":"PAYLOAD","EPOCH":"2022-01-15T12:16:24.883104","NORAD_CAT_ID":"48375","SEMIMAJOR_AXIS":"6925.339"},{"PERIAPSIS":"545.690","INCLINATION":"53.0565","TLE_LINE2":"2 48376  53.0565 309.0577 0002164  61.5936 298.5271 15.06408253 39536","ELEMENT_SET_NO":"999","MEAN_MOTION":"15.06408253","CLASSIFICATION_TYPE":"U","SITE":"AFETR","OBJECT_ID":"2021-038Z","MEAN_ANOMALY":"298.5271","GP_ID":"193921067","EPHEMERIS_TYPE":"0","COUNTRY_CODE":"US","OBJECT_NAME":"STARLINK-2610","RCS_SIZE":"LARGE","REF_FRAME":"TEME","DECAY_DATE":null,"CENTER_NAME":"EARTH","ARG_OF_PERICENTER":"61.5936","MEAN_ELEMENT_THEORY":"SGP4","RA_OF_ASC_NODE":"309.0577","MEAN_MOTION_DOT":"0.00001936","LAUNCH_DATE":"2021-05-04","APOAPSIS":"548.687","BSTAR":"0.00014883000000","TLE_LINE1":"1 48376U 21038Z   22015.50771360  .00001936  00000-0  14883-3 0  9997","REV_AT_EPOCH":"3953","ECCENTRICITY":"0.00021640","OBJECT_TYPE":"PAYLOAD","EPOCH":"2022-01-15T12:11:06.455040","SEMIMAJOR_AXIS":"6925.323","NORAD_CAT_ID":"48376","TIME_SYSTEM":"UTC","PERIOD":"95.592","MEAN_MOTION_DDOT":"0.0000000000000","FILE":"3273886"},{"EPHEMERIS_TYPE":"0","COUNTRY_CODE":"US","RCS_SIZE":"LARGE","OBJECT_NAME":"STARLINK-2499","MEAN_ANOMALY":"288.0857","GP_ID":"193917062","ELEMENT_SET_NO":"999","OBJECT_ID":"2021-038AA","SITE":"AFETR","MEAN_MOTION":"15.06411432","CLASSIFICATION_TYPE":"U","PERIAPSIS":"545.851","INCLINATION":"53.0588","TLE_LINE2":"2 48377  53.0588 309.0673 0001917  72.0341 288.0857 15.06411432 38942","TIME_SYSTEM":"UTC","PERIOD":"95.591","MEAN_MOTION_DDOT":"0.0000000000000","FILE":"3273762","EPOCH":"2022-01-15T12:05:47.787648","NORAD_CAT_ID":"48377","SEMIMAJOR_AXIS":"6925.314","ECCENTRICITY":"0.00019170","OBJECT_TYPE":"PAYLOAD","BSTAR":"0.00008172800000","TLE_LINE1":"1 48377U 21038AA  22015.50402532  .00000936  00000-0  81728-4 0  9992","RA_OF_ASC_NODE":"309.0673","MEAN_MOTION_DOT":"0.00000936","LAUNCH_DATE":"2021-05-04","APOAPSIS":"548.506","REV_AT_EPOCH":"3894","REF_FRAME":"TEME","DECAY_DATE":null,"CENTER_NAME":"EARTH","ARG_OF_PERICENTER":"72.0341","MEAN_ELEMENT_THEORY":"SGP4"},{"OBJECT_ID":"2021-038AB","SITE":"AFETR","CLASSIFICATION_TYPE":"U","MEAN_MOTION":"15.06419456","ELEMENT_SET_NO":"999","TLE_LINE2":"2 48378  53.0546 309.0890 0002028  65.7278 294.3923 15.06419456 38948","INCLINATION":"53.0546","PERIAPSIS":"545.749","RCS_SIZE":"LARGE","OBJECT_NAME":"STARLINK-2526","COUNTRY_CODE":"US","EPHEMERIS_TYPE":"0","GP_ID":"193915810","MEAN_ANOMALY":"294.3923","REV_AT_EPOCH":"3894","TLE_LINE1":"1 48378U 21038AB  22015.50034221  .00009382  00000-0  64754-3 0  9992","BSTAR":"0.00064754000000","LAUNCH_DATE":"2021-05-04","MEAN_MOTION_DOT":"0.00009382","APOAPSIS":"548.558","RA_OF_ASC_NODE":"309.0890","MEAN_ELEMENT_THEORY":"SGP4","ARG_OF_PERICENTER":"65.7278","CENTER_NAME":"EARTH","DECAY_DATE":null,"REF_FRAME":"TEME","MEAN_MOTION_DDOT":"0.0000000000000","FILE":"3273762","PERIOD":"95.591","TIME_SYSTEM":"UTC","SEMIMAJOR_AXIS":"6925.289","NORAD_CAT_ID":"48378","EPOCH":"2022-01-15T12:00:29.566944","OBJECT_TYPE":"PAYLOAD","ECCENTRICITY":"0.00020280"},{"REV_AT_EPOCH":"3888","RA_OF_ASC_NODE":"310.8869","APOAPSIS":"548.503","LAUNCH_DATE":"2021-05-04","MEAN_MOTION_DOT":"-0.00002239","BSTAR":"-0.00013137000000","TLE_LINE1":"1 48379U 21038AC  22015.09857236 -.00002239  00000-0 -13137-3 0  9991","ARG_OF_PERICENTER":"79.0579","MEAN_ELEMENT_THEORY":"SGP4","DECAY_DATE":null,"REF_FRAME":"TEME","CENTER_NAME":"EARTH","PERIOD":"95.591","FILE":"3273762","MEAN_MOTION_DDOT":"0.0000000000000","TIME_SYSTEM":"UTC","ECCENTRICITY":"0.00019640","OBJECT_TYPE":"PAYLOAD","EPOCH":"2022-01-15T02:21:56.651904","NORAD_CAT_ID":"48379","SEMIMAJOR_AXIS":"6925.277","MEAN_MOTION":"15.06423209","CLASSIFICATION_TYPE":"U","OBJECT_ID":"2021-038AC","SITE":"AFETR","ELEMENT_SET_NO":"999","INCLINATION":"53.0561","TLE_LINE2":"2 48379  53.0561 310.8869 0001964  79.0579 281.0631 15.06423209 38885","PERIAPSIS":"545.782","OBJECT_NAME":"STARLINK-2612","RCS_SIZE":"MEDIUM","EPHEMERIS_TYPE":"0","COUNTRY_CODE":"US","GP_ID":"193915560","MEAN_ANOMALY":"281.0631"},{"MEAN_ANOMALY":"295.7532","GP_ID":"193916812","COUNTRY_CODE":"US","EPHEMERIS_TYPE":"0","RCS_SIZE":"LARGE","OBJECT_NAME":"STARLINK-2614","PERIAPSIS":"546.042","TLE_LINE2":"2 48380  53.0560 308.9831 0001676  64.3630 295.7532 15.06403701 38942","INCLINATION":"53.0560","ELEMENT_SET_NO":"999","SITE":"AFETR","OBJECT_ID":"2021-038AD","CLASSIFICATION_TYPE":"U","MEAN_MOTION":"15.06403701","SEMIMAJOR_AXIS":"6925.337","NORAD_CAT_ID":"48380","EPOCH":"2022-01-15T12:30:59.015232","OBJECT_TYPE":"PAYLOAD","ECCENTRICITY":"0.00016760","TIME_SYSTEM":"UTC","MEAN_MOTION_DDOT":"0.0000000000000","FILE":"3273762","PERIOD":"95.592","CENTER_NAME":"EARTH","REF_FRAME":"TEME","DECAY_DATE":null,"MEAN_ELEMENT_THEORY":"SGP4","ARG_OF_PERICENTER":"64.3630","TLE_LINE1":"1 48380U 21038AD  22015.52151638  .00003170  00000-0  23159-3 0  9992","BSTAR":"0.00023159000000","MEAN_MOTION_DOT":"0.00003170","LAUNCH_DATE":"2021-05-04","APOAPSIS":"548.363","RA_OF_ASC_NODE":"308.9831","REV_AT_EPOCH":"3894"}];
